[{"COMMENT":"GENERATED VIA SPACETRACK.ORG API","ORIGINATOR":"18 SPCS","NORAD_CAT_ID":"43477","OBJECT_NAME":"GRACE-FO 2","OBJECT_TYPE":"PAYLOAD","CLASSIFICATION_TYPE":"U","INTLDES":"18047B","EPOCH":"2023-10-09 22:24:24","EPOCH_MICROSECONDS":"975360","MEAN_MOTION":"15.27017123","ECCENTRICITY":"0.0011732","INCLINATION":"88.9876","RA_OF_ASC_NODE":"333.5883","ARG_OF_PERICENTER":"326.3911","MEAN_ANOMALY":"33.6593","EPHEMERIS_TYPE":"0","ELEMENT_SET_NO":"999","REV_AT_EPOCH":"29950","BSTAR":"0.00020529","MEAN_MOTION_DOT":"0.00005477","MEAN_MOTION_DDOT":"0","FILE":"4029504","TLE_LINE0":"0 GRACE-FO 2","TLE_LINE1":"1 43477U 18047B   23282.93362240  .00005477  00000-0  20529-3 0  9995","TLE_LINE2":"2 43477  88.9876 333.5883 0011732 326.3911  33.6593 15.27017123299508","OBJECT_ID":"2018-047B","OBJECT_NUMBER":"43477","SEMIMAJOR_AXIS":"6862.872","PERIOD":"94.301","APOGEE":"492.789","PERIGEE":"476.686","DECAYED":"0"},{"COMMENT":"GENERATED VIA SPACETRACK.ORG API","ORIGINATOR":"18 SPCS","NORAD_CAT_ID":"43477","OBJECT_NAME":"GRACE-FO 2","OBJECT_TYPE":"PAYLOAD","CLASSIFICATION_TYPE":"U","INTLDES":"18047B","EPOCH":"2023-10-10 10:59:21","EPOCH_MICROSECONDS":"232032","MEAN_MOTION":"15.27022877","ECCENTRICITY":"0.0011654","INCLINATION":"88.9876","RA_OF_ASC_NODE":"333.517","ARG_OF_PERICENTER":"324.1128","MEAN_ANOMALY":"35.9337","EPHEMERIS_TYPE":"0","ELEMENT_SET_NO":"999","REV_AT_EPOCH":"29958","BSTAR":"0.00020251","MEAN_MOTION_DOT":"0.00005404","MEAN_MOTION_DDOT":"0","FILE":"4029830","TLE_LINE0":"0 GRACE-FO 2","TLE_LINE1":"1 43477U 18047B   23283.45788463  .00005404  00000-0  20251-3 0  9994","TLE_LINE2":"2 43477  88.9876 333.5170 0011654 324.1128  35.9337 15.27022877299587","OBJECT_ID":"2018-047B","OBJECT_NUMBER":"43477","SEMIMAJOR_AXIS":"6862.855","PERIOD":"94.301","APOGEE":"492.718","PERIGEE":"476.722","DECAYED":"0"},{"COMMENT":"GENERATED VIA SPACETRACK.ORG API","ORIGINATOR":"18 SPCS","NORAD_CAT_ID":"43477","OBJECT_NAME":"GRACE-FO 2","OBJECT_TYPE":"PAYLOAD","CLASSIFICATION_TYPE":"U","INTLDES":"18047B","EPOCH":"2023-10-10 12:33:43","EPOCH_MICROSECONDS":"247808","MEAN_MOTION":"15.27023962","ECCENTRICITY":"0.0011636","INCLINATION":"88.9875","RA_OF_ASC_NODE":"333.5081","ARG_OF_PERICENTER":"323.8114","MEAN_ANOMALY":"36.2347","EPHEMERIS_TYPE":"0","ELEMENT_SET_NO":"999","REV_AT_EPOCH":"29959","BSTAR":"0.00020827","MEAN_MOTION_DOT":"0.00005557","MEAN_MOTION_DDOT":"0","FILE":"4030143","TLE_LINE0":"0 GRACE-FO 2","TLE_LINE1":"1 43477U 18047B   23283.52341722  .00005557  00000-0  20827-3 0  9993","TLE_LINE2":"2 43477  88.9875 333.5081 0011636 323.8114  36.2347 15.27023962299590","OBJECT_ID":"2018-047B","OBJECT_NUMBER":"43477","SEMIMAJOR_AXIS":"6862.852","PERIOD":"94.301","APOGEE":"492.702","PERIGEE":"476.731","DECAYED":"0"},{"COMMENT":"GENERATED VIA SPACETRACK.ORG API","ORIGINATOR":"18 SPCS","NORAD_CAT_ID":"43477","OBJECT_NAME":"GRACE-FO 2","OBJECT_TYPE":"PAYLOAD","CLASSIFICATION_TYPE":"U","INTLDES":"18047B","EPOCH":"2023-10-10 21:59:55","EPOCH_MICROSECONDS":"327776","MEAN_MOTION":"15.27027455","ECCENTRICITY":"0.0011567","INCLINATION":"88.9875","RA_OF_ASC_NODE":"333.4546","ARG_OF_PERICENTER":"322.0214","MEAN_ANOMALY":"38.0218","EPHEMERIS_TYPE":"0","ELEMENT_SET_NO":"999","REV_AT_EPOCH":"29965","BSTAR":"0.00019313","MEAN_MOTION_DOT":"0.00005156","MEAN_MOTION_DDOT":"0","FILE":"4030441","TLE_LINE0":"0 GRACE-FO 2","TLE_LINE1":"1 43477U 18047B   23283.91661259  .00005156  00000-0  19313-3 0  9999","TLE_LINE2":"2 43477  88.9875 333.4546 0011567 322.0214  38.0218 15.27027455299655","OBJECT_ID":"2018-047B","OBJECT_NUMBER":"43477","SEMIMAJOR_AXIS":"6862.841","PERIOD":"94.301","APOGEE":"492.644","PERIGEE":"476.768","DECAYED":"0"},{"COMMENT":"GENERATED VIA SPACETRACK.ORG API","ORIGINATOR":"18 SPCS","NORAD_CAT_ID":"43477","OBJECT_NAME":"GRACE-FO 2","OBJECT_TYPE":"PAYLOAD","CLASSIFICATION_TYPE":"U","INTLDES":"18047B","EPOCH":"2023-10-11 13:43:35","EPOCH_MICROSECONDS":"267808","MEAN_MOTION":"15.27034453","ECCENTRICITY":"0.0011485","INCLINATION":"88.9873","RA_OF_ASC_NODE":"333.3655","ARG_OF_PERICENTER":"319.1215","MEAN_ANOMALY":"40.9172","EPHEMERIS_TYPE":"0","ELEMENT_SET_NO":"999","REV_AT_EPOCH":"29975","BSTAR":"0.00019615","MEAN_MOTION_DOT":"0.00005237","MEAN_MOTION_DDOT":"0","FILE":"4031093","TLE_LINE0":"0 GRACE-FO 2","TLE_LINE1":"1 43477U 18047B   23284.57193597  .00005237  00000-0  19615-3 0  9992","TLE_LINE2":"2 43477  88.9873 333.3655 0011485 319.1215  40.9172 15.27034453299758","OBJECT_ID":"2018-047B","OBJECT_NUMBER":"43477","SEMIMAJOR_AXIS":"6862.820","PERIOD":"94.300","APOGEE":"492.567","PERIGEE":"476.803","DECAYED":"0"},{"COMMENT":"GENERATED VIA SPACETRACK.ORG API","ORIGINATOR":"18 SPCS","NORAD_CAT_ID":"43477","OBJECT_NAME":"GRACE-FO 2","OBJECT_TYPE":"PAYLOAD","CLASSIFICATION_TYPE":"U","INTLDES":"18047B","EPOCH":"2023-10-11 18:26:41","EPOCH_MICROSECONDS":"198496","MEAN_MOTION":"15.27036703","ECCENTRICITY":"0.0011448","INCLINATION":"88.9872","RA_OF_ASC_NODE":"333.3387","ARG_OF_PERICENTER":"318.1957","MEAN_ANOMALY":"41.8417","EPHEMERIS_TYPE":"0","ELEMENT_SET_NO":"999","REV_AT_EPOCH":"29978","BSTAR":"0.00020146","MEAN_MOTION_DOT":"0.00005378","MEAN_MOTION_DDOT":"0","FILE":"4031232","TLE_LINE0":"0 GRACE-FO 2","TLE_LINE1":"1 43477U 18047B   23284.76853239  .00005378  00000-0  20146-3 0  9996","TLE_LINE2":"2 43477  88.9872 333.3387 0011448 318.1957  41.8417 15.27036703299785","OBJECT_ID":"2018-047B","OBJECT_NUMBER":"43477","SEMIMAJOR_AXIS":"6862.813","PERIOD":"94.300","APOGEE":"492.535","PERIGEE":"476.822","DECAYED":"0"},{"COMMENT":"GENERATED VIA SPACETRACK.ORG API","ORIGINATOR":"18 SPCS","NORAD_CAT_ID":"43477","OBJECT_NAME":"GRACE-FO 2","OBJECT_TYPE":"PAYLOAD","CLASSIFICATION_TYPE":"U","INTLDES":"18047B","EPOCH":"2023-10-12 14:53:26","EPOCH_MICROSECONDS":"656224","MEAN_MOTION":"15.27045787","ECCENTRICITY":"0.0011336","INCLINATION":"88.987","RA_OF_ASC_NODE":"333.2229","ARG_OF_PERICENTER":"314.3357","MEAN_ANOMALY":"45.6962","EPHEMERIS_TYPE":"0","ELEMENT_SET_NO":"999","REV_AT_EPOCH":"29991","BSTAR":"0.00021094","MEAN_MOTION_DOT":"0.00005631","MEAN_MOTION_DDOT":"0","FILE":"4031907","TLE_LINE0":"0 GRACE-FO 2","TLE_LINE1":"1 43477U 18047B   23285.62044741  .00005631  00000-0  21094-3 0  9997","TLE_LINE2":"2 43477  88.9870 333.2229 0011336 314.3357  45.6962 15.27045787299919","OBJECT_ID":"2018-047B","OBJECT_NUMBER":"43477","SEMIMAJOR_AXIS":"6862.786","PERIOD":"94.300","APOGEE":"492.431","PERIGEE":"476.872","DECAYED":"0"},{"COMMENT":"GENERATED VIA SPACETRACK.ORG API","ORIGINATOR":"18 SPCS","NORAD_CAT_ID":"43477","OBJECT_NAME":"GRACE-FO 2","OBJECT_TYPE":"PAYLOAD","CLASSIFICATION_TYPE":"U","INTLDES":"18047B","EPOCH":"2023-10-12 21:10:54","EPOCH_MICROSECONDS":"397920","MEAN_MOTION":"15.27048586","ECCENTRICITY":"0.0011298","INCLINATION":"88.9868","RA_OF_ASC_NODE":"333.1872","ARG_OF_PERICENTER":"313.1345","MEAN_ANOMALY":"46.8959","EPHEMERIS_TYPE":"0","ELEMENT_SET_NO":"999","REV_AT_EPOCH":"29995","BSTAR":"0.00020834","MEAN_MOTION_DOT":"0.00005562","MEAN_MOTION_DDOT":"0","FILE":"4032297","TLE_LINE0":"0 GRACE-FO 2","TLE_LINE1":"1 43477U 18047B   23285.88257405  .00005562  00000-0  20834-3 0  9992","TLE_LINE2":"2 43477  88.9868 333.1872 0011298 313.1345  46.8959 15.27048586299953","OBJECT_ID":"2018-047B","OBJECT_NUMBER":"43477","SEMIMAJOR_AXIS":"6862.778","PERIOD":"94.300","APOGEE":"492.396","PERIGEE":"476.889","DECAYED":"0"},{"COMMENT":"GENERATED VIA SPACETRACK.ORG API","ORIGINATOR":"18 SPCS","NORAD_CAT_ID":"43477","OBJECT_NAME":"GRACE-FO 2","OBJECT_TYPE":"PAYLOAD","CLASSIFICATION_TYPE":"U","INTLDES":"18047B","EPOCH":"2023-10-13 03:28:22","EPOCH_MICROSECONDS":"107648","MEAN_MOTION":"15.27050608","ECCENTRICITY":"0.0011264","INCLINATION":"88.9867","RA_OF_ASC_NODE":"333.1515","ARG_OF_PERICENTER":"311.9585","MEAN_ANOMALY":"48.0703","EPHEMERIS_TYPE":"0","ELEMENT_SET_NO":"999","REV_AT_EPOCH":"29999","BSTAR":"0.00019683","MEAN_MOTION_DOT":"0.00005257","MEAN_MOTION_DDOT":"0","FILE":"4032359","TLE_LINE0":"0 GRACE-FO 2","TLE_LINE1":"1 43477U 18047B   23286.14470032  .00005257  00000-0  19683-3 0  9996","TLE_LINE2":"2 43477  88.9867 333.1515 0011264 311.9585  48.0703 15.27050608299994","OBJECT_ID":"2018-047B","OBJECT_NUMBER":"43477","SEMIMAJOR_AXIS":"6862.772","PERIOD":"94.299","APOGEE":"492.367","PERIGEE":"476.907","DECAYED":"0"},{"COMMENT":"GENERATED VIA SPACETRACK.ORG API","ORIGINATOR":"18 SPCS","NORAD_CAT_ID":"43477","OBJECT_NAME":"GRACE-FO 2","OBJECT_TYPE":"PAYLOAD","CLASSIFICATION_TYPE":"U","INTLDES":"18047B","EPOCH":"2023-10-13 14:28:55","EPOCH_MICROSECONDS":"488864","MEAN_MOTION":"15.27056685","ECCENTRICITY":"0.0011205","INCLINATION":"88.9865","RA_OF_ASC_NODE":"333.0891","ARG_OF_PERICENTER":"309.8569","MEAN_ANOMALY":"50.1694","EPHEMERIS_TYPE":"0","ELEMENT_SET_NO":"999","REV_AT_EPOCH":"30006","BSTAR":"0.00022055","MEAN_MOTION_DOT":"0.00005888","MEAN_MOTION_DDOT":"0","FILE":"4032919","TLE_LINE0":"0 GRACE-FO 2","TLE_LINE1":"1 43477U 18047B   23286.60342001  .00005888  00000-0  22055-3 0  9998","TLE_LINE2":"2 43477  88.9865 333.0891 0011205 309.8569  50.1694 15.27056685300066","OBJECT_ID":"2018-047B","OBJECT_NUMBER":"43477","SEMIMAJOR_AXIS":"6862.754","PERIOD":"94.299","APOGEE":"492.308","PERIGEE":"476.929","DECAYED":"0"}]